STARLINK-1007           
1 44713U 19074A   23321.52328813  .00002183  00000+0  16545-3 0  9990
2 44713  53.0562  11.7390 0001520  90.7742 269.3421 15.06388138221667
STARLINK-1008           
1 44714U 19074B   23321.43576971  .00000231  00000+0  34393-4 0  9995
2 44714  53.0568  12.1337 0001442  90.6016 269.5138 15.06389859221653
STARLINK-1009           
1 44715U 19074C   23321.35836604  .00000142  00000+0  28420-4 0  9994
2 44715  53.0545  12.4851 0001375  95.1697 264.9449 15.06391545221630
STARLINK-1010           
1 44716U 19074D   23321.44314171 -.00001564  00000+0 -86103-4 0  9998
2 44716  53.0579  12.1059 0002233  96.1458 263.9785 15.06396973221637
STARLINK-1011           
1 44717U 19074E   23321.57399429  .00006755  00000+0  47209-3 0  9990
2 44717  53.0559  31.5138 0001260 100.9245 259.1885 15.06388626221393
STARLINK-1012           
1 44718U 19074F   23321.41366143  .00000371  00000+0  43824-4 0  9999
2 44718  53.0566  12.2370 0001590  84.7495 275.3676 15.06387691221645
STARLINK-1013           
1 44719U 19074G   23321.55372191  .00000261  00000+0  36415-4 0  9991
2 44719  53.0559  11.6080 0001536  92.2485 267.8680 15.06392499222792
STARLINK-1014           
1 44720U 19074H   23321.43850668 -.00000105  00000+0  11878-4 0  9994
2 44720  53.0558  12.1186 0001549 116.2809 243.8339 15.06395569221657
STARLINK-1015           
1 44721U 19074J   23321.42840044 -.00000344  00000+0 -41834-5 0  9993
2 44721  53.0572  12.1684 0001594  88.8033 271.3138 15.06388531221643
STARLINK-1017           
1 44723U 19074L   23321.44682327 -.00000258  00000+0  15651-5 0  9996
2 44723  53.0585  12.0897 0001556  98.2062 261.9104 15.06384271221655
STARLINK-1019           
1 44724U 19074M   23321.40997261  .00000386  00000+0  44847-4 0  9998
2 44724  53.0558  12.2522 0001323  97.6989 262.4150 15.06387720221644
STARLINK-1020           
1 44725U 19074N   23321.48184068  .00002058  00000+0  15703-3 0  9996
2 44725  53.0563  31.9281 0001340  95.8638 264.2504 15.06390465221374
STARLINK-1021           
1 44726U 19074P   23321.53897742  .00000253  00000+0  35899-4 0  9997
2 44726  53.0546  11.6700 0001348  90.4671 269.6472 15.06387440221667
STARLINK-1024           
1 44729U 19074S   23321.59026393  .00036872  00000+0  45918-3 0  9990
2 44729  53.0157 279.3276 0003593 355.2344   4.8633 15.59585442222919
STARLINK-1027           
1 44732U 19074V   23321.60349214  .00043847  00000+0  29484-2 0  9995
2 44732  53.0580  31.3846 0001887  87.7531 272.3674 15.06347685221396
STARLINK-1028           
1 44733U 19074W   23321.46894796  .00000826  00000+0  74346-4 0  9999
2 44733  53.0560  11.9817 0001430  83.2221 276.8930 15.06388090221656
STARLINK-1029           
1 44734U 19074X   23321.35099555 -.00000019  00000+0  17625-4 0  9990
2 44734  53.0549 292.5135 0001652  91.0876 269.0302 15.06392449222733
STARLINK-1030           
1 44735U 19074Y   23321.47815183  .00000133  00000+0  27800-4 0  9999
2 44735  53.0554  31.9434 0001308 102.2552 257.8583 15.06388631221374
STARLINK-1031           
1 44736U 19074Z   23321.49289276 -.00000162  00000+0  80342-5 0  9994
2 44736  53.0553  31.8810 0001409 112.5879 247.5259 15.06397754221382
STARLINK-1032           
1 44737U 19074AA  23321.50397368  .00008660  00000+0  59961-3 0  9990
2 44737  53.0556  31.8288 0001366 105.5260 254.5880 15.06397519221380
STARLINK-1035           
1 44740U 19074AD  23321.43392414 -.00001760  00000+0 -99348-4 0  9993
2 44740  53.0566  32.1468 0001480  91.5650 268.5508 15.06388762221374
STARLINK-1036           
1 44741U 19074AE  23321.57767764 -.00001273  00000+0 -66569-4 0  9991
2 44741  53.0565  31.4946 0001543  84.2344 275.8821 15.06386996221394
STARLINK-1038           
1 44743U 19074AG  23321.56109964  .00001228  00000+0  10133-3 0  9997
2 44743  53.0549  51.5703 0001370  95.4862 264.6284 15.06389517221200
STARLINK-1039           
1 44744U 19074AH  23321.50579677 -.00001553  00000+0 -85460-4 0  9993
2 44744  53.0555  51.8180 0001161  82.7266 277.3855 15.06382838221108
STARLINK-1041           
1 44746U 19074AK  23321.55740550  .00001544  00000+0  12261-3 0  9996
2 44746  53.0574  51.5880 0001529  90.7927 269.3237 15.06371548221118
STARLINK-1042           
1 44747U 19074AL  23321.52054225  .00001245  00000+0  10246-3 0  9990
2 44747  53.0561  51.7516 0001392  95.7372 264.3776 15.06389759221116
STARLINK-1043           
1 44748U 19074AM  23321.55002638 -.00000319  00000+0 -25138-5 0  9996
2 44748  53.0555  51.6227 0001316  85.8214 274.2925 15.06383805221111
STARLINK-1046           
1 44751U 19074AQ  23321.49842431 -.00003157  00000+0 -19320-3 0  9993
2 44751  53.0572  51.8544 0001712 104.0911 256.0268 15.06390747221106
STARLINK-1047           
1 44752U 19074AR  23321.58504481 -.00000125  00000+0  10476-4 0  9999
2 44752  53.0553  31.4652 0001369  77.2630 282.8512 15.06389359221394
STARLINK-1048           
1 44753U 19074AS  23321.45788593  .00001003  00000+0  86266-4 0  9999
2 44753  53.0546  12.0355 0001409  90.3390 269.7761 15.06387186221651
STARLINK-1052           
1 44757U 19074AW  23321.60617381  .00015215  00000+0  92409-3 0  9991
2 44757  53.0562  30.0901 0001269 318.4165  41.6729 15.10687833221410
STARLINK-1053           
1 44758U 19074AX  23321.54635567  .00000934  00000+0  81618-4 0  9994
2 44758  53.0563  51.7233 0001292  70.1507 289.9621 15.06387803221112
STARLINK-1054           
1 44759U 19074AY  23321.52791309  .00002160  00000+0  16393-3 0  9990
2 44759  53.0558  51.7147 0001633 108.3881 251.7285 15.06388633218750
STARLINK-1055           
1 44760U 19074AZ  23321.58191000  .00006058  00000+0  27574-3 0  9993
2 44760  53.0423  30.5511 0000723 331.2524  28.8432 15.22029147221428
STARLINK-1056           
1 44761U 19074BA  23321.52422771  .00001137  00000+0  95231-4 0  9999
2 44761  53.0559  51.7338 0001412 100.7749 259.3398 15.06390035221112
STARLINK-1057           
1 44762U 19074BB  23321.52607265 -.00001711  00000+0 -96056-4 0  9999
2 44762  53.0558  31.7273 0001422  81.5077 278.6073 15.06388835221387
STARLINK-1058           
1 44763U 19074BC  23321.51322031 -.00001049  00000+0 -51566-4 0  9995
2 44763  53.0541  52.1326 0001184  93.0462 267.0662 15.06376992221104
STARLINK-1059           
1 44764U 19074BD  23321.32011240  .00020353  00000+0  79078-3 0  9996
2 44764  53.0811 356.8209 0003872 240.5089 119.5523 15.26057281221879
STARLINK-1060           
1 44765U 19074BE  23321.47447212  .00000619  00000+0  60501-4 0  9990
2 44765  53.0567  31.9583 0001868  98.1394 261.9807 15.06391068221377
STARLINK-1061           
1 44766U 19074BF  23321.53897276 -.00000597  00000+0 -21222-4 0  9991
2 44766  53.0561  51.6674 0001419 106.4238 253.6907 15.06392983221112
STARLINK-1062           
1 44767U 19074BG  23321.53065511 -.00001653  00000+0 -92139-4 0  9990
2 44767  53.0546  51.6956 0001512  90.4187 269.6975 15.06384761221115
STARLINK-1063           
1 44768U 19074BH  23321.55371435 -.00001216  00000+0 -62768-4 0  9998
2 44768  53.0567  51.6047 0001046  94.6409 265.4699 15.06392788221121
STARLINK-1067           
1 44771U 19074BL  23321.54265771 -.00000556  00000+0 -18470-4 0  9993
2 44771  53.0569  51.6612 0001351 101.4622 258.6518 15.06395514221111
STARLINK-1068           
1 44772U 19074BM  23321.46710842 -.00000032  00000+0  16750-4 0  9996
2 44772  53.0559  31.9946 0001365  87.4447 272.6699 15.06383768221377
STARLINK-1073           
1 44914U 20001A   23321.61637984  .00000929  00000+0  81254-4 0  9993
2 44914  53.0537 171.3238 0001512  89.5154 270.6008 15.06395097212770
STARLINK-1084           
1 44915U 20001B   23321.31414123  .00001080  00000+0  91379-4 0  9997
2 44915  53.0515 172.6789 0001394  93.7161 266.3987 15.06405466212731
STARLINK-1098           
1 44917U 20001D   23321.31782158  .00000841  00000+0  75354-4 0  9994
2 44917  53.0546 172.6628 0001183  88.1249 271.9875 15.06399857212734
STARLINK-1099           
1 44918U 20001E   23321.00176817  .00021164  00000+0  46538-3 0  9992
2 44918  53.0559 170.6196 0000368 328.9331  31.1653 15.43968931213476
STARLINK-1102           
1 44920U 20001G   23321.24219659  .00007287  00000+0  30099-3 0  9998
2 44920  53.0535 145.4293 0003372  73.8879 286.2489 15.25045217213116
STARLINK-1103           
1 44921U 20001H   23321.29510658  .00000823  00000+0  73570-4 0  9998
2 44921  53.0548 172.7216 0001398  89.4025 270.7125 15.06727244212706
STARLINK-1104           
1 44922U 20001J   23321.33255783  .00001417  00000+0  11397-3 0  9997
2 44922  53.0488 172.5966 0001499  89.6533 270.4628 15.06407673212737
STARLINK-1106           
1 44923U 20001K   23320.83748990  .00007014  00000+0  32478-3 0  9991
2 44923  53.0587 156.8134 0001000 118.7599 241.3497 15.21185537212914
STARLINK-1111           
1 44924U 20001L   23321.61269914  .00002728  00000+0  20195-3 0  9993
2 44924  53.0465 171.3598 0001508  78.6403 281.4756 15.06399752212773
STARLINK-1112           
1 44925U 20001M   23321.62743933  .00000497  00000+0  52285-4 0  9990
2 44925  53.0537 171.2757 0001494  98.5155 261.6004 15.06392094212777
STARLINK-1113           
1 44926U 20001N   23321.29202017  .00000840  00000+0  75299-4 0  9999
2 44926  53.0518 172.8649 0001221  88.9215 271.1914 15.06398358213419
STARLINK-1114           
1 44927U 20001P   23321.30675790 -.00012352  00000+0 -81081-3 0  9992
2 44927  53.0546 172.7148 0001435 114.7991 245.3148 15.06442535212733
STARLINK-1119           
1 44928U 20001Q   23321.30459132 -.00000331  00000+0  11207-5 0  9991
2 44928  53.0537 168.5269 0001358  96.5073 263.6082 15.31873516212794
STARLINK-1121           
1 44929U 20001R   23321.58334491  .01401432  00000+0  83034-2 0  9993
2 44929  53.0482 164.9393 0000931 104.6627 132.8454 15.74663374  5802
STARLINK-1123           
1 44930U 20001S   23321.32150432  .00001025  00000+0  87710-4 0  9998
2 44930  53.0543 172.6476 0001467  88.6136 271.5021 15.06399183212733
STARLINK-1128           
